{"type": "FeatureCollection", "features": [ {"type": "Feature", "properties": {"norad_id": 32089, "name": "FENGYUN 1C DEB", "group": "fengyun-1c-debris", "lat": 56.112980271139655, "lon": -30.40561623418236, "alt_km": 846.3694321527491, "timestamp": "2025-12-02T19:35:50.841314+00:00", "meta": {"OBJECT_NAME": "FENGYUN 1C DEB", "OBJECT_ID": "1999-025CQF", "EPOCH": "2025-11-26T07:05:08.743776", "MEAN_MOTION": 14.1401839, "ECCENTRICITY": 0.01118311, "INCLINATION": 98.6554, "RA_OF_ASC_NODE": 336.3858, "ARG_OF_PERICENTER": 170.8108, "MEAN_ANOMALY": 189.5147, "EPHEMERIS_TYPE": 0, "CLASSIFICATION_TYPE": "U", "NORAD_CAT_ID": 32089, "ELEMENT_SET_NO": 999, "REV_AT_EPOCH": 62983, "BSTAR": 0.00062311827, "MEAN_MOTION_DOT": 1.215e-05, "MEAN_MOTION_DDOT": 0}, "tle": {"line1": "1 32089U 99025CQF 25330.29524009  .00001215  00000+0  62312-3 0  9996", "line2": "2 32089  98.6554 336.3858 0111831 170.8108 189.5147 14.14018390629831"}}, "geometry": {"type": "Point", "coordinates": [-30.40561623418236, 56.112980271139655]}}, {"type": "Feature", "properties": {"norad_id": 32093, "name": "FENGYUN 1C DEB", "group": "fengyun-1c-debris", "lat": -17.448120129155285, "lon": 6.4483287344173466, "alt_km": 828.3518460245241, "timestamp": "2025-12-02T19:35:50.841324+00:00", "meta": {"OBJECT_NAME": "FENGYUN 1C DEB", "OBJECT_ID": "1999-025CQK", "EPOCH": "2025-12-01T00:55:21.025920", "MEAN_MOTION": 14.37557083, "ECCENTRICITY": 0.00799288, "INCLINATION": 98.9208, "RA_OF_ASC_NODE": 187.4339, "ARG_OF_PERICENTER": 27.8676, "MEAN_ANOMALY": 332.6757, "EPHEMERIS_TYPE": 0, "CLASSIFICATION_TYPE": "U", "NORAD_CAT_ID": 32093, "ELEMENT_SET_NO": 999, "REV_AT_EPOCH": 96349, "BSTAR": 0.00043265006, "MEAN_MOTION_DOT": 1.297e-05, "MEAN_MOTION_DDOT": 0}, "tle": {"line1": "1 32093U 99025CQK 25335.03843780  .00001297  00000+0  43265-3 0  9994", "line2": "2 32093  98.9208 187.4339 0079928  27.8676 332.6757 14.37557083963498"}}, "geometry": {"type": "Point", "coordinates": [6.4483287344173466, -17.448120129155285]}}, {"type": "Feature", "properties": {"norad_id": 32094, "name": "FENGYUN 1C DEB", "group": "fengyun-1c-debris", "lat": -42.04033038982969, "lon": 139.5199505920604, "alt_km": 856.9780357181753, "timestamp": "2025-12-02T19:35:50.841335+00:00", "meta": {"OBJECT_NAME": "FENGYUN 1C DEB", "OBJECT_ID": "1999-025CQL", "EPOCH": "2025-12-01T22:06:55.792512", "MEAN_MOTION": 14.10702032, "ECCENTRICITY": 0.00343203, "INCLINATION": 98.7444, "RA_OF_ASC_NODE": 326.6263, "ARG_OF_PERICENTER": 300.0247, "MEAN_ANOMALY": 59.7521, "EPHEMERIS_TYPE": 0, "CLASSIFICATION_TYPE": "U", "NORAD_CAT_ID": 32094, "ELEMENT_SET_NO": 999, "REV_AT_EPOCH": 94212, "BSTAR": 0.00046947738, "MEAN_MOTION_DOT": 8e-06, "MEAN_MOTION_DDOT": 0}, "tle": {"line1": "1 32094U 99025CQL 25335.92147908  .00000800  00000+0  46948-3 0  9992", "line2": "2 32094  98.7444 326.6263 0034320 300.0247  59.7521 14.10702032942129"}}, "geometry": {"type": "Point", "coordinates": [139.5199505920604, -42.04033038982969]}}, {"type": "Feature", "properties": {"norad_id": 32095, "name": "FENGYUN 1C DEB", "group": "fengyun-1c-debris", "lat": -26.169403751283127, "lon": 168.44158699748547, "alt_km": 840.151528446183, "timestamp": "2025-12-02T19:35:50.841345+00:00", "meta": {"OBJECT_NAME": "FENGYUN 1C DEB", "OBJECT_ID": "1999-025CQM", "EPOCH": "2025-12-01T18:53:30.579936", "MEAN_MOTION": 14.16020076, "ECCENTRICITY": 0.00791206, "INCLINATION": 98.6419, "RA_OF_ASC_NODE": 351.7287, "ARG_OF_PERICENTER": 123.2072, "MEAN_ANOMALY": 237.6721, "EPHEMERIS_TYPE": 0, "CLASSIFICATION_TYPE": "U", "NORAD_CAT_ID": 32095, "ELEMENT_SET_NO": 999, "REV_AT_EPOCH": 94662, "BSTAR": 0.00029755138, "MEAN_MOTION_DOT": 5.63e-06, "MEAN_MOTION_DDOT": 0}, "tle": {"line1": "1 32095U 99025CQM 25335.78715949  .00000563  00000+0  29755-3 0  9996", "line2": "2 32095  98.6419 351.7287 0079120 123.2072 237.6721 14.16020076946629"}}, "geometry": {"type": "Point", "coordinates": [168.44158699748547, -26.169403751283127]}}, {"type": "Feature", "properties": {"norad_id": 32096, "name": "FENGYUN 1C DEB", "group": "fengyun-1c-debris", "lat": -19.337320918635097, "lon": -177.16803288439155, "alt_km": 850.1664614401388, "timestamp": "2025-12-02T19:35:50.841355+00:00", "meta": {"OBJECT_NAME": "FENGYUN 1C DEB", "OBJECT_ID": "1999-025CQN", "EPOCH": "2025-12-01T13:16:49.852128", "MEAN_MOTION": 13.9013068, "ECCENTRICITY": 0.01346343, "INCLINATION": 99.0772, "RA_OF_ASC_NODE": 4.8151, "ARG_OF_PERICENTER": 170.0146, "MEAN_ANOMALY": 190.3736, "EPHEMERIS_TYPE": 0, "CLASSIFICATION_TYPE": "U", "NORAD_CAT_ID": 32096, "ELEMENT_SET_NO": 999, "REV_AT_EPOCH": 92706, "BSTAR": 0.0012264124, "MEAN_MOTION_DOT": 1.588e-05, "MEAN_MOTION_DDOT": 0}, "tle": {"line1": "1 32096U 99025CQN 25335.55335477  .00001588  00000+0  12264-2 0  9990", "line2": "2 32096  99.0772   4.8151 0134634 170.0146 190.3736 13.90130680927069"}}, "geometry": {"type": "Point", "coordinates": [-177.16803288439155, -19.337320918635097]}}, {"type": "Feature", "properties": {"norad_id": 32098, "name": "FENGYUN 1C DEB", "group": "fengyun-1c-debris", "lat": -66.60900373766898, "lon": 129.00564866009688, "alt_km": 852.9469217010028, "timestamp": "2025-12-02T19:35:50.841366+00:00", "meta": {"OBJECT_NAME": "FENGYUN 1C DEB", "OBJECT_ID": "1999-025CQQ", "EPOCH": "2025-11-29T05:54:21.217824", "MEAN_MOTION": 14.20229965, "ECCENTRICITY": 0.01954302, "INCLINATION": 98.6126, "RA_OF_ASC_NODE": 326.0376, "ARG_OF_PERICENTER": 158.6882, "MEAN_ANOMALY": 202.2577, "EPHEMERIS_TYPE": 0, "CLASSIFICATION_TYPE": "U", "NORAD_CAT_ID": 32098, "ELEMENT_SET_NO": 999, "REV_AT_EPOCH": 64036, "BSTAR": 0.00026691948, "MEAN_MOTION_DOT": 6.47e-06, "MEAN_MOTION_DDOT": 0}, "tle": {"line1": "1 32098U 99025CQQ 25333.24607891  .00000647  00000+0  26692-3 0  9994", "line2": "2 32098  98.6126 326.0376 0195430 158.6882 202.2577 14.20229965640367"}}, "geometry": {"type": "Point", "coordinates": [129.00564866009688, -66.60900373766898]}}, {"type": "Feature", "properties": {"norad_id": 32099, "name": "FENGYUN 1C DEB", "group": "fengyun-1c-debris", "lat": -54.719427903417824, "lon": -38.43070274407974, "alt_km": 678.6893241452799, "timestamp": "2025-12-02T19:35:50.841377+00:00", "meta": {"OBJECT_NAME": "FENGYUN 1C DEB", "OBJECT_ID": "1999-025CQR", "EPOCH": "2025-11-27T03:48:43.153920", "MEAN_MOTION": 13.91631164, "ECCENTRICITY": 0.03440813, "INCLINATION": 98.2802, "RA_OF_ASC_NODE": 304.6284, "ARG_OF_PERICENTER": 318.5691, "MEAN_ANOMALY": 96.6338, "EPHEMERIS_TYPE": 0, "CLASSIFICATION_TYPE": "U", "NORAD_CAT_ID": 32099, "ELEMENT_SET_NO": 999, "REV_AT_EPOCH": 64471, "BSTAR": 0.0019258302, "MEAN_MOTION_DOT": 3.922e-05, "MEAN_MOTION_DDOT": 0}, "tle": {"line1": "1 32099U 99025CQR 25331.15883280  .00003922  00000+0  19258-2 0  9999", "line2": "2 32099  98.2802 304.6284 0344081 318.5691  96.6338 13.91631164644716"}}, "geometry": {"type": "Point", "coordinates": [-38.43070274407974, -54.719427903417824]}}, {"type": "Feature", "properties": {"norad_id": 32101, "name": "FENGYUN 1C DEB", "group": "fengyun-1c-debris", "lat": 36.66415549593941, "lon": -130.82688999437255, "alt_km": 943.0097822088919, "timestamp": "2025-12-02T19:35:50.841387+00:00", "meta": {"OBJECT_NAME": "FENGYUN 1C DEB", "OBJECT_ID": "1999-025CQT", "EPOCH": "2025-12-02T10:51:08.225856", "MEAN_MOTION": 14.0154371, "ECCENTRICITY": 0.0121802, "INCLINATION": 99.0307, "RA_OF_ASC_NODE": 235.6114, "ARG_OF_PERICENTER": 267.4856, "MEAN_ANOMALY": 91.2361, "EPHEMERIS_TYPE": 0, "CLASSIFICATION_TYPE": "U", "NORAD_CAT_ID": 32101, "ELEMENT_SET_NO": 999, "REV_AT_EPOCH": 93038, "BSTAR": 0.0026975, "MEAN_MOTION_DOT": 4.309e-05, "MEAN_MOTION_DDOT": 0}, "tle": {"line1": "1 32101U 99025CQT 25336.45217854  .00004309  00000+0  26975-2 0  9993", "line2": "2 32101  99.0307 235.6114 0121802 267.4856  91.2361 14.01543710930382"}}, "geometry": {"type": "Point", "coordinates": [-130.82688999437255, 36.66415549593941]}}, {"type": "Feature", "properties": {"norad_id": 32105, "name": "FENGYUN 1C DEB", "group": "fengyun-1c-debris", "lat": 4.807486697855565, "lon": -36.099295516785425, "alt_km": 1103.7510099675565, "timestamp": "2025-12-02T19:35:50.841398+00:00", "meta": {"OBJECT_NAME": "FENGYUN 1C DEB", "OBJECT_ID": "1999-025CQX", "EPOCH": "2025-11-28T04:29:43.050912", "MEAN_MOTION": 13.40179437, "ECCENTRICITY": 0.03936416, "INCLINATION": 103.4627, "RA_OF_ASC_NODE": 318.9152, "ARG_OF_PERICENTER": 105.6195, "MEAN_ANOMALY": 258.8715, "EPHEMERIS_TYPE": 0, "CLASSIFICATION_TYPE": "U", "NORAD_CAT_ID": 32105, "ELEMENT_SET_NO": 999, "REV_AT_EPOCH": 59516, "BSTAR": 0.0026659689, "MEAN_MOTION_DOT": 2.224e-05, "MEAN_MOTION_DDOT": 0}, "tle": {"line1": "1 32105U 99025CQX 25332.18730383  .00002224  00000+0  26660-2 0  9995", "line2": "2 32105 103.4627 318.9152 0393641 105.6195 258.8715 13.40179437595169"}}, "geometry": {"type": "Point", "coordinates": [-36.099295516785425, 4.807486697855565]}}, {"type": "Feature", "properties": {"norad_id": 32106, "name": "FENGYUN 1C DEB", "group": "fengyun-1c-debris", "lat": 77.50571497298692, "lon": -168.54787631670186, "alt_km": 725.3091936011579, "timestamp": "2025-12-02T19:35:50.841409+00:00", "meta": {"OBJECT_NAME": "FENGYUN 1C DEB", "OBJECT_ID": "1999-025CQY", "EPOCH": "2025-12-01T04:26:59.805888", "MEAN_MOTION": 14.26624695, "ECCENTRICITY": 0.01094883, "INCLINATION": 101.4616, "RA_OF_ASC_NODE": 303.0332, "ARG_OF_PERICENTER": 72.2765, "MEAN_ANOMALY": 289.032, "EPHEMERIS_TYPE": 0, "CLASSIFICATION_TYPE": "U", "NORAD_CAT_ID": 32106, "ELEMENT_SET_NO": 999, "REV_AT_EPOCH": 69227, "BSTAR": 0.0038557998, "MEAN_MOTION_DOT": 9.872e-05, "MEAN_MOTION_DDOT": 0}, "tle": {"line1": "1 32106U 99025CQY 25335.18541442  .00009872  00000+0  38558-2 0  9990", "line2": "2 32106 101.4616 303.0332 0109488  72.2765 289.0320 14.26624695692271"}}, "geometry": {"type": "Point", "coordinates": [-168.54787631670186, 77.50571497298692]}}]}